EROS C3                 
1 54880U 22179A   26191.81824925  .00003348  00000+0  18250-3 0  9990
2 54880 139.3344 139.8926 0006557 147.9804 212.1403 15.11010102195907
