{"fetched_at":"2026-07-11T06:35:23.173Z","source":"https://celestrak.org/NORAD/elements/gp.php?NAME=EROS&FORMAT=JSON","constellation":"eros","records":[{"OBJECT_NAME":"EROS C3","OBJECT_ID":"2022-179A","EPOCH":"2026-07-10T19:38:16.735200","CLASSIFICATION_TYPE":"U","MEAN_MOTION":15.11010102,"ECCENTRICITY":0.0006557,"INCLINATION":139.3344,"RA_OF_ASC_NODE":139.8926,"ARG_OF_PERICENTER":147.9804,"MEAN_ANOMALY":212.1403,"EPHEMERIS_TYPE":0,"NORAD_CAT_ID":54880,"ELEMENT_SET_NO":999,"REV_AT_EPOCH":19590,"BSTAR":0.0001825,"MEAN_MOTION_DOT":0.00003348,"MEAN_MOTION_DDOT":0}]}
